0 DMSP 5D-2 F15 DEB
1 25993U 99067C   13282.45017042  .00001344  00000-0  54708-3 0  9931
2 25993 098.5025 349.8955 0005862 138.1821 344.5068 14.29087817718594
0 DMSP 5D-2 F15 DEB
1 25993U 99067C   13287.19959715  .00002271  00000-0  91254-3 0  9958
2 25993 098.5025 354.5272 0005866 125.6360 297.6522 14.29102539719270
0 DMSP 5D-2 F15 DEB
1 25993U 99067C   13289.15337421  .00002733  00000-0  10946-2 0  9962
2 25993 098.5021 356.4330 0005840 120.8878 268.4225 14.29113577719556
0 DMSP 5D-2 F15 DEB
1 25993U 99067C   13290.50236308  .00002362  00000-0  94798-3 0  9972
2 25993 098.5018 357.7491 0005791 117.6480 007.9924 14.29119187719748
0 DMSP 5D-2 F15 DEB
1 25993U 99067C   13291.69196399  .00002179  00000-0  87604-3 0  9983
2 25993 098.5013 358.9094 0005776 114.9238 007.5188 14.29122966719915
0 DMSP 5D-2 F15 DEB
1 25993U 99067C   13293.15020766  .00002177  00000-0  87509-3 0  9993
2 25993 098.5008 000.3317 0005749 111.6452 308.9561 14.29127306720128
0 DMSP 5D-2 F15 DEB
1 25993U 99067C   13294.83140771  .00001938  00000-0  78068-3 0    05
2 25993 098.5008 001.9714 0005568 108.8525 316.3559 14.29135132720366
0 DMSP 5D-2 F15 DEB
1 25993U 99067C   13296.15920668  .00001915  00000-0  77175-3 0    17
2 25993 098.5008 003.2662 0005475 105.6897 306.9892 14.29140208720553
